CCSDS_OMM_VERS = 2.0
CREATION_DATE  = 
ORIGINATOR     = 

OBJECT_NAME    = IDEFIX & ARIANE 42P R/B
OBJECT_ID      = 2002-021B
CENTER_NAME    = EARTH
REF_FRAME      = TEME
TIME_SYSTEM    = UTC
MEAN_ELEMENT_THEORY = SGP/SGP4

EPOCH          = 2025-12-29T10:26:02.040576
MEAN_MOTION    = 14.30963744
ECCENTRICITY   = .0012616
INCLINATION    = 98.5805
RA_OF_ASC_NODE = 297.9106
ARG_OF_PERICENTER = 38.4536
MEAN_ANOMALY   = 321.7543

EPHEMERIS_TYPE = 0
CLASSIFICATION_TYPE = U
NORAD_CAT_ID   = 27422
ELEMENT_SET_NO = 999
REV_AT_EPOCH   = 23397
BSTAR          = .20473E-3
MEAN_MOTION_DOT = .495E-5
MEAN_MOTION_DDOT = 0

CCSDS_OMM_VERS = 2.0
CREATION_DATE  = 
ORIGINATOR     = 

OBJECT_NAME    = AQUA
OBJECT_ID      = 2002-022A
CENTER_NAME    = EARTH
REF_FRAME      = TEME
TIME_SYSTEM    = UTC
MEAN_ELEMENT_THEORY = SGP/SGP4

EPOCH          = 2025-12-28T20:13:05.896704
MEAN_MOTION    = 14.61770338
ECCENTRICITY   = .00018789
INCLINATION    = 98.4059
RA_OF_ASC_NODE = 323.9850
ARG_OF_PERICENTER = 97.4017
MEAN_ANOMALY   = 318.4487

EPHEMERIS_TYPE = 0
CLASSIFICATION_TYPE = U
NORAD_CAT_ID   = 27424
ELEMENT_SET_NO = 999
REV_AT_EPOCH   = 25838
BSTAR          = .29423776E-3
MEAN_MOTION_DOT = .1419E-4
MEAN_MOTION_DDOT = 0

CCSDS_OMM_VERS = 2.0
CREATION_DATE  = 
ORIGINATOR     = 

OBJECT_NAME    = CZ-4B R/B
OBJECT_ID      = 2002-024C
CENTER_NAME    = EARTH
REF_FRAME      = TEME
TIME_SYSTEM    = UTC
MEAN_ELEMENT_THEORY = SGP/SGP4

EPOCH          = 2025-12-29T03:00:33.163776
MEAN_MOTION    = 14.14531499
ECCENTRICITY   = .00495264
INCLINATION    = 98.8976
RA_OF_ASC_NODE = 51.8381
ARG_OF_PERICENTER = 222.5932
MEAN_ANOMALY   = 191.9907

EPHEMERIS_TYPE = 0
CLASSIFICATION_TYPE = U
NORAD_CAT_ID   = 27432
ELEMENT_SET_NO = 999
REV_AT_EPOCH   = 21926
BSTAR          = .71407275E-4
MEAN_MOTION_DOT = .94E-6
MEAN_MOTION_DDOT = 0

CCSDS_OMM_VERS = 2.0
CREATION_DATE  = 
ORIGINATOR     = 

OBJECT_NAME    = MIDORI II (ADEOS-II)
OBJECT_ID      = 2002-056A
CENTER_NAME    = EARTH
REF_FRAME      = TEME
TIME_SYSTEM    = UTC
MEAN_ELEMENT_THEORY = SGP/SGP4

EPOCH          = 2025-12-29T09:03:27.817056
MEAN_MOTION    = 14.29218691
ECCENTRICITY   = .0001036
INCLINATION    = 98.7658
RA_OF_ASC_NODE = 316.4229
ARG_OF_PERICENTER = 141.1119
MEAN_ANOMALY   = 219.0137

EPHEMERIS_TYPE = 0
CLASSIFICATION_TYPE = U
NORAD_CAT_ID   = 27597
ELEMENT_SET_NO = 999
REV_AT_EPOCH   = 20025
BSTAR          = .21657E-3
MEAN_MOTION_DOT = .505E-5
MEAN_MOTION_DDOT = 0

CCSDS_OMM_VERS = 2.0
CREATION_DATE  = 
ORIGINATOR     = 

OBJECT_NAME    = H-2A R/B
OBJECT_ID      = 2002-056E
CENTER_NAME    = EARTH
REF_FRAME      = TEME
TIME_SYSTEM    = UTC
MEAN_ELEMENT_THEORY = SGP/SGP4

EPOCH          = 2025-12-29T08:53:52.610784
MEAN_MOTION    = 14.33692458
ECCENTRICITY   = .0070644
INCLINATION    = 98.3089
RA_OF_ASC_NODE = 321.4674
ARG_OF_PERICENTER = 12.1324
MEAN_ANOMALY   = 101.1351

EPHEMERIS_TYPE = 0
CLASSIFICATION_TYPE = U
NORAD_CAT_ID   = 27601
ELEMENT_SET_NO = 999
REV_AT_EPOCH   = 20403
BSTAR          = .23675E-3
MEAN_MOTION_DOT = .634E-5
MEAN_MOTION_DDOT = 0

CCSDS_OMM_VERS = 2.0
CREATION_DATE  = 
ORIGINATOR     = 

OBJECT_NAME    = CZ-4B R/B
OBJECT_ID      = 2003-049C
CENTER_NAME    = EARTH
REF_FRAME      = TEME
TIME_SYSTEM    = UTC
MEAN_ELEMENT_THEORY = SGP/SGP4

EPOCH          = 2025-12-29T12:19:42.835872
MEAN_MOTION    = 14.54927110
ECCENTRICITY   = .0049384
INCLINATION    = 98.6801
RA_OF_ASC_NODE = 350.7123
ARG_OF_PERICENTER = 85.9348
MEAN_ANOMALY   = 274.7490

EPHEMERIS_TYPE = 0
CLASSIFICATION_TYPE = U
NORAD_CAT_ID   = 28059
ELEMENT_SET_NO = 999
REV_AT_EPOCH   = 17639
BSTAR          = .16509E-3
MEAN_MOTION_DOT = .67E-5
MEAN_MOTION_DDOT = 0

CCSDS_OMM_VERS = 2.0
CREATION_DATE  = 
ORIGINATOR     = 

OBJECT_NAME    = CZ-2C R/B
OBJECT_ID      = 2004-012C
CENTER_NAME    = EARTH
REF_FRAME      = TEME
TIME_SYSTEM    = UTC
MEAN_ELEMENT_THEORY = SGP/SGP4

EPOCH          = 2025-12-29T03:17:23.082144
MEAN_MOTION    = 15.56812121
ECCENTRICITY   = .00166721
INCLINATION    = 97.7393
RA_OF_ASC_NODE = 57.1257
ARG_OF_PERICENTER = 207.0651
MEAN_ANOMALY   = 152.9736

EPHEMERIS_TYPE = 0
CLASSIFICATION_TYPE = U
NORAD_CAT_ID   = 28222
ELEMENT_SET_NO = 999
REV_AT_EPOCH   = 19327
BSTAR          = .7794993E-3
MEAN_MOTION_DOT = .56403E-3
MEAN_MOTION_DDOT = 0

CCSDS_OMM_VERS = 2.0
CREATION_DATE  = 
ORIGINATOR     = 

OBJECT_NAME    = SL-16 R/B
OBJECT_ID      = 2004-021B
CENTER_NAME    = EARTH
REF_FRAME      = TEME
TIME_SYSTEM    = UTC
MEAN_ELEMENT_THEORY = SGP/SGP4

EPOCH          = 2025-12-29T09:08:05.498016
MEAN_MOTION    = 14.14582422
ECCENTRICITY   = .0004373
INCLINATION    = 71.0005
RA_OF_ASC_NODE = 20.0426
ARG_OF_PERICENTER = 171.7790
MEAN_ANOMALY   = 188.3404

EPHEMERIS_TYPE = 0
CLASSIFICATION_TYPE = U
NORAD_CAT_ID   = 28353
ELEMENT_SET_NO = 999
REV_AT_EPOCH   = 11289
BSTAR          = .2051E-3
MEAN_MOTION_DOT = .346E-5
MEAN_MOTION_DDOT = 0

CCSDS_OMM_VERS = 2.0
CREATION_DATE  = 
ORIGINATOR     = 

OBJECT_NAME    = CZ-4B R/B
OBJECT_ID      = 2004-035C
CENTER_NAME    = EARTH
REF_FRAME      = TEME
TIME_SYSTEM    = UTC
MEAN_ELEMENT_THEORY = SGP/SGP4

EPOCH          = 2025-12-29T01:40:10.226784
MEAN_MOTION    = 15.27652393
ECCENTRICITY   = .00320242
INCLINATION    = 97.3600
RA_OF_ASC_NODE = 33.1971
ARG_OF_PERICENTER = 216.7956
MEAN_ANOMALY   = 143.1086

EPHEMERIS_TYPE = 0
CLASSIFICATION_TYPE = U
NORAD_CAT_ID   = 28415
ELEMENT_SET_NO = 999
REV_AT_EPOCH   = 16912
BSTAR          = .41814141E-3
MEAN_MOTION_DOT = .11403E-3
MEAN_MOTION_DDOT = 0

CCSDS_OMM_VERS = 2.0
CREATION_DATE  = 
ORIGINATOR     = 

OBJECT_NAME    = CZ-2C R/B
OBJECT_ID      = 2004-046B
CENTER_NAME    = EARTH
REF_FRAME      = TEME
TIME_SYSTEM    = UTC
MEAN_ELEMENT_THEORY = SGP/SGP4

EPOCH          = 2025-12-29T08:48:14.900832
MEAN_MOTION    = 14.26952187
ECCENTRICITY   = .0139639
INCLINATION    = 98.1997
RA_OF_ASC_NODE = 277.7123
ARG_OF_PERICENTER = 3.3506
MEAN_ANOMALY   = 356.8579

EPHEMERIS_TYPE = 0
CLASSIFICATION_TYPE = U
NORAD_CAT_ID   = 28480
ELEMENT_SET_NO = 999
REV_AT_EPOCH   = 9847
BSTAR          = .18145E-3
MEAN_MOTION_DOT = .447E-5
MEAN_MOTION_DDOT = 0

CCSDS_OMM_VERS = 2.0
CREATION_DATE  = 
ORIGINATOR     = 

OBJECT_NAME    = ARIANE 5 R/B
OBJECT_ID      = 2004-049H
CENTER_NAME    = EARTH
REF_FRAME      = TEME
TIME_SYSTEM    = UTC
MEAN_ELEMENT_THEORY = SGP/SGP4

EPOCH          = 2025-12-29T10:19:20.430912
MEAN_MOTION    = 14.85060858
ECCENTRICITY   = .0083697
INCLINATION    = 98.2533
RA_OF_ASC_NODE = 164.3113
ARG_OF_PERICENTER = 218.1884
MEAN_ANOMALY   = 141.3382

EPHEMERIS_TYPE = 0
CLASSIFICATION_TYPE = U
NORAD_CAT_ID   = 28499
ELEMENT_SET_NO = 999
REV_AT_EPOCH   = 13536
BSTAR          = .2288E-3
MEAN_MOTION_DOT = .2016E-4
MEAN_MOTION_DDOT = 0

CCSDS_OMM_VERS = 2.0
CREATION_DATE  = 
ORIGINATOR     = 

OBJECT_NAME    = CZ-2D R/B
OBJECT_ID      = 2005-024B
CENTER_NAME    = EARTH
REF_FRAME      = TEME
TIME_SYSTEM    = UTC
MEAN_ELEMENT_THEORY = SGP/SGP4

EPOCH          = 2025-12-28T18:13:22.722528
MEAN_MOTION    = 15.54167228
ECCENTRICITY   = .00031857
INCLINATION    = 97.3634
RA_OF_ASC_NODE = 10.6363
ARG_OF_PERICENTER = 293.0521
MEAN_ANOMALY   = 67.0397

EPHEMERIS_TYPE = 0
CLASSIFICATION_TYPE = U
NORAD_CAT_ID   = 28738
ELEMENT_SET_NO = 999
REV_AT_EPOCH   = 12874
BSTAR          = .62639412E-3
MEAN_MOTION_DOT = .40793E-3
MEAN_MOTION_DDOT = 0

