IDEFIX & ARIANE 42P R/B 
1 27422U 02021B   25363.43474584  .00000495  00000+0  20473-3 0  9996
2 27422  98.5805 297.9106 0012616  38.4536 321.7543 14.30963744233973
AQUA                    
1 27424U 02022A   25362.84242936  .00001419  00000+0  29424-3 0  9999
2 27424  98.4059 323.9850 0001878  97.4017 318.4487 14.61770338258389
CZ-4B R/B               
1 27432U 02024C   25363.12538384  .00000094  00000+0  71407-4 0  9994
2 27432  98.8976  51.8381 0049526 222.5932 191.9907 14.14531499219261
MIDORI II (ADEOS-II)    
1 27597U 02056A   25363.37740529  .00000505  00000+0  21657-3 0  9992
2 27597  98.7658 316.4229 0001036 141.1119 219.0137 14.29218691200255
H-2A R/B                
1 27601U 02056E   25363.37074781  .00000634  00000+0  23675-3 0  9993
2 27601  98.3089 321.4674 0070644  12.1324 101.1351 14.33692458204032
CZ-4B R/B               
1 28059U 03049C   25363.51369023  .00000670  00000+0  16509-3 0  9994
2 28059  98.6801 350.7123 0049384  85.9348 274.7490 14.54927110176397
CZ-2C R/B               
1 28222U 04012C   25363.13707271  .00056403  00000+0  77950-3 0  9998
2 28222  97.7393  57.1257 0016672 207.0651 152.9736 15.56812121193273
SL-16 R/B               
1 28353U 04021B   25363.38061919  .00000346  00000+0  20510-3 0  9997
2 28353  71.0005  20.0426 0004373 171.7790 188.3404 14.14582422112891
CZ-4B R/B               
1 28415U 04035C   25363.06956281  .00011403  00000+0  41814-3 0  9997
2 28415  97.3600  33.1971 0032024 216.7956 143.1086 15.27652393169123
CZ-2C R/B               
1 28480U 04046B   25363.36683913  .00000447  00000+0  18145-3 0  9990
2 28480  98.1997 277.7123 0139639   3.3506 356.8579 14.26952187 98470
ARIANE 5 R/B            
1 28499U 04049H   25363.43009758  .00002016  00000+0  22880-3 0  9995
2 28499  98.2533 164.3113 0083697 218.1884 141.3382 14.85060858135363
CZ-2D R/B               
1 28738U 05024B   25362.75929077  .00040793  00000+0  62639-3 0  9994
2 28738  97.3634  10.6363 0003185 293.0521  67.0397 15.54167228128745
